[{"OBJECT_NAME":"STARLINK-5749","OBJECT_ID":"2023-020A","EPOCH":"2026-03-09T05:09:26.997120","MEAN_MOTION":15.02529474,"ECCENTRICITY":6.57e-5,"INCLINATION":43.0028,"RA_OF_ASC_NODE":7.5869,"ARG_OF_PERICENTER":252.1909,"MEAN_ANOMALY":107.8862,"EPHEMERIS_TYPE":0,"CLASSIFICATION_TYPE":"U","NORAD_CAT_ID":55569,"ELEMENT_SET_NO":999,"REV_AT_EPOCH":16991,"BSTAR":0.00017075481,"MEAN_MOTION_DOT":2.103e-5,"MEAN_MOTION_DDOT":0},{"OBJECT_NAME":"FALCON 9 DEB","OBJECT_ID":"2021-041BG","EPOCH":"2026-03-09T15:47:07.516032","MEAN_MOTION":15.0585876,"ECCENTRICITY":0.00124165,"INCLINATION":53.0346,"RA_OF_ASC_NODE":200.9185,"ARG_OF_PERICENTER":159.6872,"MEAN_ANOMALY":200.4613,"EPHEMERIS_TYPE":0,"CLASSIFICATION_TYPE":"U","NORAD_CAT_ID":48607,"ELEMENT_SET_NO":999,"REV_AT_EPOCH":26415,"BSTAR":0.00013916149,"MEAN_MOTION_DOT":1.762e-5,"MEAN_MOTION_DDOT":0}]
